{
  "type": "FeatureCollection",
  "features": [
    {
      "type": "Feature",
      "properties": {
        "norad_id": 33972,
        "name": "COSMOS 2251 DEB",
        "group": "cosmos-2251-debris",
        "lat": -9.096077732303735,
        "lon": -1.5195748146179309,
        "alt_km": 852.7226884918573,
        "timestamp": "2025-12-20T18:51:32.106376+00:00",
        "meta_object_name": "COSMOS 2251 DEB",
        "meta_object_id": "1993-036FF",
        "meta_epoch": "2025-12-20T07:06:08.155872",
        "meta_mean_motion": 14.3627436,
        "meta_eccentricity": 0.0123671,
        "meta_inclination": 73.9935,
        "meta_ra_of_asc_node": 176.7482,
        "meta_arg_of_pericenter": 342.8449,
        "meta_mean_anomaly": 195.3138,
        "meta_ephemeris_type": 0,
        "meta_classification_type": "U",
        "meta_norad_cat_id": 33972,
        "meta_element_set_no": 999,
        "meta_rev_at_epoch": 87182,
        "meta_bstar": 0.00083133088,
        "meta_mean_motion_dot": 2.623e-05,
        "meta_mean_motion_ddot": 0,
        "tle_line1": "1 33972U 93036FF  25354.29592773  .00002623  00000+0  83133-3 0  9991",
        "tle_line2": "2 33972  73.9935 176.7482 0123671 342.8449 195.3138 14.36274360871823"
      },
      "geometry": {
        "type": "Point",
        "coordinates": [
          -1.5195748146179309,
          -9.096077732303735
        ]
      }
    },
    {
      "type": "Feature",
      "properties": {
        "norad_id": 33973,
        "name": "COSMOS 2251 DEB",
        "group": "cosmos-2251-debris",
        "lat": -23.906886379147625,
        "lon": -84.82631838016131,
        "alt_km": 728.8584338948913,
        "timestamp": "2025-12-20T18:51:32.106386+00:00",
        "meta_object_name": "COSMOS 2251 DEB",
        "meta_object_id": "1993-036FG",
        "meta_epoch": "2025-12-20T13:00:57.405312",
        "meta_mean_motion": 14.45398446,
        "meta_eccentricity": 0.00473965,
        "meta_inclination": 74.0087,
        "meta_ra_of_asc_node": 88.3249,
        "meta_arg_of_pericenter": 265.3144,
        "meta_mean_anomaly": 113.6795,
        "meta_ephemeris_type": 0,
        "meta_classification_type": "U",
        "meta_norad_cat_id": 33973,
        "meta_element_set_no": 999,
        "meta_rev_at_epoch": 88713,
        "meta_bstar": 0.00010198027,
        "meta_mean_motion_dot": 3.35e-06,
        "meta_mean_motion_ddot": 0,
        "tle_line1": "1 33973U 93036FG  25354.54233108  .00000335  00000+0  10198-3 0  9993",
        "tle_line2": "2 33973  74.0087  88.3249 0047396 265.3144 113.6795 14.45398446887138"
      },
      "geometry": {
        "type": "Point",
        "coordinates": [
          -84.82631838016131,
          -23.906886379147625
        ]
      }
    },
    {
      "type": "Feature",
      "properties": {
        "norad_id": 33975,
        "name": "COSMOS 2251 DEB",
        "group": "cosmos-2251-debris",
        "lat": -64.00318664561607,
        "lon": 33.7217467683717,
        "alt_km": 892.9256595827055,
        "timestamp": "2025-12-20T18:51:32.106396+00:00",
        "meta_object_name": "COSMOS 2251 DEB",
        "meta_object_id": "1993-036FJ",
        "meta_epoch": "2025-12-20T12:20:20.266080",
        "meta_mean_motion": 14.00539333,
        "meta_eccentricity": 0.01910603,
        "meta_inclination": 73.8018,
        "meta_ra_of_asc_node": 70.787,
        "meta_arg_of_pericenter": 202.4885,
        "meta_mean_anomaly": 156.7793,
        "meta_ephemeris_type": 0,
        "meta_classification_type": "U",
        "meta_norad_cat_id": 33975,
        "meta_element_set_no": 999,
        "meta_rev_at_epoch": 85938,
        "meta_bstar": 0.00039188319,
        "meta_mean_motion_dot": 6.56e-06,
        "meta_mean_motion_ddot": 0,
        "tle_line1": "1 33975U 93036FJ  25354.51412345  .00000656  00000+0  39188-3 0  9990",
        "tle_line2": "2 33975  73.8018  70.7870 0191060 202.4885 156.7793 14.00539333859383"
      },
      "geometry": {
        "type": "Point",
        "coordinates": [
          33.7217467683717,
          -64.00318664561607
        ]
      }
    },
    {
      "type": "Feature",
      "properties": {
        "norad_id": 33980,
        "name": "COSMOS 2251 DEB",
        "group": "cosmos-2251-debris",
        "lat": 6.4799697679704495,
        "lon": 45.9257376764522,
        "alt_km": 719.1184567229002,
        "timestamp": "2025-12-20T18:51:32.106407+00:00",
        "meta_object_name": "COSMOS 2251 DEB",
        "meta_object_id": "1993-036FP",
        "meta_epoch": "2025-12-20T14:26:18.193344",
        "meta_mean_motion": 14.58691779,
        "meta_eccentricity": 0.00282175,
        "meta_inclination": 74.021,
        "meta_ra_of_asc_node": 44.4116,
        "meta_arg_of_pericenter": 188.2132,
        "meta_mean_anomaly": 291.8051,
        "meta_ephemeris_type": 0,
        "meta_classification_type": "U",
        "meta_norad_cat_id": 33980,
        "meta_element_set_no": 999,
        "meta_rev_at_epoch": 88909,
        "meta_bstar": 0.000374313,
        "meta_mean_motion_dot": 1.726e-05,
        "meta_mean_motion_ddot": 0,
        "tle_line1": "1 33980U 93036FP  25354.60159946  .00001726  00000+0  37431-3 0  9999",
        "tle_line2": "2 33980  74.0210  44.4116 0028217 188.2132 291.8051 14.58691779889091"
      },
      "geometry": {
        "type": "Point",
        "coordinates": [
          45.9257376764522,
          6.4799697679704495
        ]
      }
    },
    {
      "type": "Feature",
      "properties": {
        "norad_id": 33982,
        "name": "COSMOS 2251 DEB",
        "group": "cosmos-2251-debris",
        "lat": -73.49456886374706,
        "lon": -120.83909434014907,
        "alt_km": 726.632401185866,
        "timestamp": "2025-12-20T18:51:32.106417+00:00",
        "meta_object_name": "COSMOS 2251 DEB",
        "meta_object_id": "1993-036FR",
        "meta_epoch": "2025-12-20T09:58:46.371072",
        "meta_mean_motion": 14.60241195,
        "meta_eccentricity": 0.00753191,
        "meta_inclination": 74.0699,
        "meta_ra_of_asc_node": 345.3114,
        "meta_arg_of_pericenter": 27.6327,
        "meta_mean_anomaly": 94.6562,
        "meta_ephemeris_type": 0,
        "meta_classification_type": "U",
        "meta_norad_cat_id": 33982,
        "meta_element_set_no": 999,
        "meta_rev_at_epoch": 89271,
        "meta_bstar": 0.0003431333,
        "meta_mean_motion_dot": 1.692e-05,
        "meta_mean_motion_ddot": 0,
        "tle_line1": "1 33982U 93036FR  25354.41581448  .00001692  00000+0  34313-3 0  9994",
        "tle_line2": "2 33982  74.0699 345.3114 0075319  27.6327  94.6562 14.60241195892717"
      },
      "geometry": {
        "type": "Point",
        "coordinates": [
          -120.83909434014907,
          -73.49456886374706
        ]
      }
    },
    {
      "type": "Feature",
      "properties": {
        "norad_id": 33983,
        "name": "COSMOS 2251 DEB",
        "group": "cosmos-2251-debris",
        "lat": -69.8925093037953,
        "lon": 80.56101930851531,
        "alt_km": 720.2537411571338,
        "timestamp": "2025-12-20T18:51:32.106427+00:00",
        "meta_object_name": "COSMOS 2251 DEB",
        "meta_object_id": "1993-036FS",
        "meta_epoch": "2025-12-20T12:57:46.806048",
        "meta_mean_motion": 14.50699164,
        "meta_eccentricity": 0.00212258,
        "meta_inclination": 74.0493,
        "meta_ra_of_asc_node": 132.3947,
        "meta_arg_of_pericenter": 234.5975,
        "meta_mean_anomaly": 205.1839,
        "meta_ephemeris_type": 0,
        "meta_classification_type": "U",
        "meta_norad_cat_id": 33983,
        "meta_element_set_no": 999,
        "meta_rev_at_epoch": 88742,
        "meta_bstar": 0.00036105978,
        "meta_mean_motion_dot": 1.395e-05,
        "meta_mean_motion_ddot": 0,
        "tle_line1": "1 33983U 93036FS  25354.54012507  .00001395  00000+0  36106-3 0  9996",
        "tle_line2": "2 33983  74.0493 132.3947 0021225 234.5975 205.1839 14.50699164887423"
      },
      "geometry": {
        "type": "Point",
        "coordinates": [
          80.56101930851531,
          -69.8925093037953
        ]
      }
    },
    {
      "type": "Feature",
      "properties": {
        "norad_id": 33984,
        "name": "COSMOS 2251 DEB",
        "group": "cosmos-2251-debris",
        "lat": 54.0351760675216,
        "lon": 128.28521415765593,
        "alt_km": 655.6847561890245,
        "timestamp": "2025-12-20T18:51:32.106438+00:00",
        "meta_object_name": "COSMOS 2251 DEB",
        "meta_object_id": "1993-036FT",
        "meta_epoch": "2025-12-20T09:01:34.392864",
        "meta_mean_motion": 14.66423273,
        "meta_eccentricity": 0.00226902,
        "meta_inclination": 74.0092,
        "meta_ra_of_asc_node": 332.3547,
        "meta_arg_of_pericenter": 168.3116,
        "meta_mean_anomaly": 312.5182,
        "meta_ephemeris_type": 0,
        "meta_classification_type": "U",
        "meta_norad_cat_id": 33984,
        "meta_element_set_no": 999,
        "meta_rev_at_epoch": 89178,
        "meta_bstar": 0.00054923308,
        "meta_mean_motion_dot": 3.019e-05,
        "meta_mean_motion_ddot": 0,
        "tle_line1": "1 33984U 93036FT  25354.37609251  .00003019  00000+0  54923-3 0  9998",
        "tle_line2": "2 33984  74.0092 332.3547 0022690 168.3116 312.5182 14.66423273891786"
      },
      "geometry": {
        "type": "Point",
        "coordinates": [
          128.28521415765593,
          54.0351760675216
        ]
      }
    }
  ]
}